{"type": "FeatureCollection", "features": [ {"type": "Feature", "properties": {"norad_id": 38552, "name": "METEOSAT-10 (MSG-3)", "group": "weather", "lat": 1.8796179971949996, "lon": -144.8355515538983, "alt_km": 35785.26204072806, "timestamp": "2025-12-11T08:58:26.756836+00:00", "meta": {"OBJECT_NAME": "METEOSAT-10 (MSG-3)", "OBJECT_ID": "2012-035B", "EPOCH": "2025-12-10T23:48:54.536832", "MEAN_MOTION": 1.00274457, "ECCENTRICITY": 8.27e-05, "INCLINATION": 4.2251, "RA_OF_ASC_NODE": 61.7286, "ARG_OF_PERICENTER": 246.6369, "MEAN_ANOMALY": 128.9806, "EPHEMERIS_TYPE": 0, "CLASSIFICATION_TYPE": "U", "NORAD_CAT_ID": 38552, "ELEMENT_SET_NO": 999, "REV_AT_EPOCH": 4897, "BSTAR": 0, "MEAN_MOTION_DOT": -1e-08, "MEAN_MOTION_DDOT": 0}, "tle": {"line1": "1 38552U 12035B   25344.99229788 -.00000001  00000+0  00000+0 0  9996", "line2": "2 38552   4.2251  61.7286 0000827 246.6369 128.9806  1.00274457 48974"}}, "geometry": {"type": "Point", "coordinates": [-144.8355515538983, 1.8796179971949996]}}, {"type": "Feature", "properties": {"norad_id": 38771, "name": "METOP-B", "group": "weather", "lat": -56.286063282967554, "lon": 48.59033856122595, "alt_km": 829.493612188815, "timestamp": "2025-12-11T08:58:26.756847+00:00", "meta": {"OBJECT_NAME": "METOP-B", "OBJECT_ID": "2012-049A", "EPOCH": "2025-12-11T04:10:30.314208", "MEAN_MOTION": 14.21407381, "ECCENTRICITY": 0.0002842, "INCLINATION": 98.6801, "RA_OF_ASC_NODE": 35.1592, "ARG_OF_PERICENTER": 147.4964, "MEAN_ANOMALY": 212.6389, "EPHEMERIS_TYPE": 0, "CLASSIFICATION_TYPE": "U", "NORAD_CAT_ID": 38771, "ELEMENT_SET_NO": 999, "REV_AT_EPOCH": 68655, "BSTAR": 0.00011245, "MEAN_MOTION_DOT": 2.02e-06, "MEAN_MOTION_DDOT": 0}, "tle": {"line1": "1 38771U 12049A   25345.17396197  .00000202  00000+0  11245-3 0  9993", "line2": "2 38771  98.6801  35.1592 0002842 147.4964 212.6389 14.21407381686558"}}, "geometry": {"type": "Point", "coordinates": [48.59033856122595, -56.286063282967554]}}, {"type": "Feature", "properties": {"norad_id": 39216, "name": "INSAT-3D", "group": "weather", "lat": -1.4165322208803386, "lon": -15.498526184271356, "alt_km": 35787.3121117586, "timestamp": "2025-12-11T08:58:26.756859+00:00", "meta": {"OBJECT_NAME": "INSAT-3D", "OBJECT_ID": "2013-038B", "EPOCH": "2025-12-10T22:43:08.337792", "MEAN_MOTION": 1.00270704, "ECCENTRICITY": 0.0001564, "INCLINATION": 1.4406, "RA_OF_ASC_NODE": 85.0084, "ARG_OF_PERICENTER": 163.5127, "MEAN_ANOMALY": 301.7215, "EPHEMERIS_TYPE": 0, "CLASSIFICATION_TYPE": "U", "NORAD_CAT_ID": 39216, "ELEMENT_SET_NO": 999, "REV_AT_EPOCH": 4519, "BSTAR": 0, "MEAN_MOTION_DOT": -3.34e-06, "MEAN_MOTION_DDOT": 0}, "tle": {"line1": "1 39216U 13038B   25344.94662428 -.00000334  00000+0  00000+0 0  9994", "line2": "2 39216   1.4406  85.0084 0001564 163.5127 301.7215  1.00270704 45193"}}, "geometry": {"type": "Point", "coordinates": [-15.498526184271356, -1.4165322208803386]}}, {"type": "Feature", "properties": {"norad_id": 39260, "name": "FENGYUN 3C", "group": "weather", "lat": -37.49887070707808, "lon": 136.54991827386806, "alt_km": 836.52639563717, "timestamp": "2025-12-11T08:58:26.756871+00:00", "meta": {"OBJECT_NAME": "FENGYUN 3C", "OBJECT_ID": "2013-052A", "EPOCH": "2025-12-11T04:33:19.808640", "MEAN_MOTION": 14.15695512, "ECCENTRICITY": 0.0014201, "INCLINATION": 98.4761, "RA_OF_ASC_NODE": 322.9449, "ARG_OF_PERICENTER": 200.6217, "MEAN_ANOMALY": 159.4387, "EPHEMERIS_TYPE": 0, "CLASSIFICATION_TYPE": "U", "NORAD_CAT_ID": 39260, "ELEMENT_SET_NO": 999, "REV_AT_EPOCH": 63196, "BSTAR": 0.00011824, "MEAN_MOTION_DOT": 1.91e-06, "MEAN_MOTION_DDOT": 0}, "tle": {"line1": "1 39260U 13052A   25345.18981260  .00000191  00000+0  11824-3 0  9994", "line2": "2 39260  98.4761 322.9449 0014201 200.6217 159.4387 14.15695512631967"}}, "geometry": {"type": "Point", "coordinates": [136.54991827386806, -37.49887070707808]}}, {"type": "Feature", "properties": {"norad_id": 40069, "name": "METEOR-M 2", "group": "weather", "lat": 8.592907751927493, "lon": 144.3040515547404, "alt_km": 819.8298637449943, "timestamp": "2025-12-11T08:58:26.756882+00:00", "meta": {"OBJECT_NAME": "METEOR-M 2", "OBJECT_ID": "2014-037A", "EPOCH": "2025-12-11T04:47:31.220160", "MEAN_MOTION": 14.21386317, "ECCENTRICITY": 0.0004913, "INCLINATION": 98.4904, "RA_OF_ASC_NODE": 322.8431, "ARG_OF_PERICENTER": 215.0096, "MEAN_ANOMALY": 145.076, "EPHEMERIS_TYPE": 0, "CLASSIFICATION_TYPE": "U", "NORAD_CAT_ID": 40069, "ELEMENT_SET_NO": 999, "REV_AT_EPOCH": 59261, "BSTAR": 0.00025318, "MEAN_MOTION_DOT": 5.11e-06, "MEAN_MOTION_DDOT": 0}, "tle": {"line1": "1 40069U 14037A   25345.19966690  .00000511  00000+0  25318-3 0  9997", "line2": "2 40069  98.4904 322.8431 0004913 215.0096 145.0760 14.21386317592610"}}, "geometry": {"type": "Point", "coordinates": [144.3040515547404, 8.592907751927493]}}, {"type": "Feature", "properties": {"norad_id": 40267, "name": "HIMAWARI-8", "group": "weather", "lat": 0.020155382348090726, "lon": -4.390184247396726, "alt_km": 35783.52209764314, "timestamp": "2025-12-11T08:58:26.756895+00:00", "meta": {"OBJECT_NAME": "HIMAWARI-8", "OBJECT_ID": "2014-060A", "EPOCH": "2025-12-10T22:46:15.538944", "MEAN_MOTION": 1.0027034, "ECCENTRICITY": 0.0001231, "INCLINATION": 0.0345, "RA_OF_ASC_NODE": 200.098, "ARG_OF_PERICENTER": 101.1558, "MEAN_ANOMALY": 260.885, "EPHEMERIS_TYPE": 0, "CLASSIFICATION_TYPE": "U", "NORAD_CAT_ID": 40267, "ELEMENT_SET_NO": 999, "REV_AT_EPOCH": 4087, "BSTAR": 0, "MEAN_MOTION_DOT": -2.7e-06, "MEAN_MOTION_DDOT": 0}, "tle": {"line1": "1 40267U 14060A   25344.94879096 -.00000270  00000+0  00000+0 0  9998", "line2": "2 40267   0.0345 200.0980 0001231 101.1558 260.8850  1.00270340 40875"}}, "geometry": {"type": "Point", "coordinates": [-4.390184247396726, 0.020155382348090726]}}, {"type": "Feature", "properties": {"norad_id": 40367, "name": "FENGYUN 2G", "group": "weather", "lat": -4.456177399538481, "lon": -45.5631290816616, "alt_km": 35779.332961901506, "timestamp": "2025-12-11T08:58:26.756908+00:00", "meta": {"OBJECT_NAME": "FENGYUN 2G", "OBJECT_ID": "2014-090A", "EPOCH": "2025-12-10T20:22:55.693344", "MEAN_MOTION": 1.00264635, "ECCENTRICITY": 0.00031271, "INCLINATION": 5.1637, "RA_OF_ASC_NODE": 75.1179, "ARG_OF_PERICENTER": 194.7733, "MEAN_ANOMALY": 215.2369, "EPHEMERIS_TYPE": 0, "CLASSIFICATION_TYPE": "U", "NORAD_CAT_ID": 40367, "ELEMENT_SET_NO": 999, "REV_AT_EPOCH": 4011, "BSTAR": 0, "MEAN_MOTION_DOT": -2.96e-06, "MEAN_MOTION_DDOT": 0}, "tle": {"line1": "1 40367U 14090A   25344.84925571 -.00000296  00000+0  00000+0 0  9999", "line2": "2 40367   5.1637  75.1179 0003127 194.7733 215.2369  1.00264635 40112"}}, "geometry": {"type": "Point", "coordinates": [-45.5631290816616, -4.456177399538481]}}, {"type": "Feature", "properties": {"norad_id": 40732, "name": "METEOSAT-11 (MSG-4)", "group": "weather", "lat": 1.2553037591223724, "lon": -135.70823522310016, "alt_km": 35783.71600703468, "timestamp": "2025-12-11T08:58:26.756921+00:00", "meta": {"OBJECT_NAME": "METEOSAT-11 (MSG-4)", "OBJECT_ID": "2015-034A", "EPOCH": "2025-12-11T03:16:58.554048", "MEAN_MOTION": 1.00266993, "ECCENTRICITY": 9.47e-05, "INCLINATION": 2.7313, "RA_OF_ASC_NODE": 72.0064, "ARG_OF_PERICENTER": 124.4661, "MEAN_ANOMALY": 302.1906, "EPHEMERIS_TYPE": 0, "CLASSIFICATION_TYPE": "U", "NORAD_CAT_ID": 40732, "ELEMENT_SET_NO": 999, "REV_AT_EPOCH": 533, "BSTAR": 0, "MEAN_MOTION_DOT": 6.7e-07, "MEAN_MOTION_DDOT": 0}, "tle": {"line1": "1 40732U 15034A   25345.13678882  .00000067  00000+0  00000+0 0  9992", "line2": "2 40732   2.7313  72.0064 0000947 124.4661 302.1906  1.00266993  5335"}}, "geometry": {"type": "Point", "coordinates": [-135.70823522310016, 1.2553037591223724]}}, {"type": "Feature", "properties": {"norad_id": 41105, "name": "ELEKTRO-L 2", "group": "weather", "lat": 4.920618207804662, "lon": -159.42744458512735, "alt_km": 35780.23508073951, "timestamp": "2025-12-11T08:58:26.756933+00:00", "meta": {"OBJECT_NAME": "ELEKTRO-L 2", "OBJECT_ID": "2015-074A", "EPOCH": "2025-12-11T02:11:38.541984", "MEAN_MOTION": 1.00272182, "ECCENTRICITY": 0.0003878, "INCLINATION": 6.222, "RA_OF_ASC_NODE": 72.8471, "ARG_OF_PERICENTER": 199.5378, "MEAN_ANOMALY": 186.0824, "EPHEMERIS_TYPE": 0, "CLASSIFICATION_TYPE": "U", "NORAD_CAT_ID": 41105, "ELEMENT_SET_NO": 999, "REV_AT_EPOCH": 3662, "BSTAR": 0, "MEAN_MOTION_DOT": -1.12e-06, "MEAN_MOTION_DDOT": 0}, "tle": {"line1": "1 41105U 15074A   25345.09141831 -.00000112  00000+0  00000+0 0  9997", "line2": "2 41105   6.2220  72.8471 0003878 199.5378 186.0824  1.00272182 36621"}}, "geometry": {"type": "Point", "coordinates": [-159.42744458512735, 4.920618207804662]}}, {"type": "Feature", "properties": {"norad_id": 41752, "name": "INSAT-3DR", "group": "weather", "lat": -0.04794751636959738, "lon": -71.00343419802317, "alt_km": 35728.48923326029, "timestamp": "2025-12-11T08:58:26.756945+00:00", "meta": {"OBJECT_NAME": "INSAT-3DR", "OBJECT_ID": "2016-054A", "EPOCH": "2025-12-11T03:35:26.786112", "MEAN_MOTION": 1.00270645, "ECCENTRICITY": 0.0014436, "INCLINATION": 0.088, "RA_OF_ASC_NODE": 86.584, "ARG_OF_PERICENTER": 183.936, "MEAN_ANOMALY": 297.4576, "EPHEMERIS_TYPE": 0, "CLASSIFICATION_TYPE": "U", "NORAD_CAT_ID": 41752, "ELEMENT_SET_NO": 999, "REV_AT_EPOCH": 3393, "BSTAR": 0, "MEAN_MOTION_DOT": -7.1e-07, "MEAN_MOTION_DDOT": 0}, "tle": {"line1": "1 41752U 16054A   25345.14961558 -.00000071  00000+0  00000+0 0  9990", "line2": "2 41752   0.0880  86.5840 0014436 183.9360 297.4576  1.00270645 33939"}}, "geometry": {"type": "Point", "coordinates": [-71.00343419802317, -0.04794751636959738]}}]}